[
    {
        "Altitude(m)": 604234.6216507724,
        "Argument of Periapsis(deg)": 0.0,
        "Eccentricity": 0.0,
        "Inclination(deg)": 60.0,
        "Latitude(deg)": 14.117306597121264,
        "Longitude(deg)": 56.72731258746356,
        "Mean Anomaly(deg)": -196.36359999999996,
        "RAAN(deg)": 345.0,
        "Satellite Name": "Test1 1528",
        "Satellite Number": 1528,
        "Semi-Major Axis(m)": 6980739.136638005,
        "Time(s)": 0
    },
    {
        "Altitude(m)": 604223.4498356223,
        "Argument of Periapsis(deg)": 0.00010418945913296404,
        "Eccentricity": 0.0,
        "Inclination(deg)": 60.0,
        "Latitude(deg)": 13.582443265659613,
        "Longitude(deg)": 57.014222429032515,
        "Mean Anomaly(deg)": -195.74349385453812,
        "RAAN(deg)": 344.99957995086027,
        "Satellite Name": "Test1 1528",
        "Satellite Number": 1528,
        "Semi-Major Axis(m)": 6980739.136638005,
        "Time(s)": 10
    }
]